{"fetched_at":"2026-03-29T16:36:15Z","count":15609,"tles":[{"name":"STARLINK-3398","line1":"1 51120U 22005S   26087.79921113  .00000466  00000+0  47373-4 0  9997","line2":"2 51120  53.2179 203.3448 0001139  78.7317 281.3803 15.08845105231760","category":"Starlink"}]}